ONEWEB-0236             
1 48797U 21045AG  26181.25770061  .00000067  00000+0  14329-3 0  9997
2 48797  87.8994 256.6025 0002140  98.6063 261.5309 13.15548749245977
ONEWEB-0248             
1 48798U 21045AH  26181.27037592  .00000154  00000+0  37392-3 0  9997
2 48798  87.9007 256.5848 0002099 113.3719 246.7632 13.15548221246130
ONEWEB-0225             
1 48799U 21045AJ  26181.21649752  .00000065  00000+0  13802-3 0  9990
2 48799  87.9003 256.6030 0001798 116.0102 244.1213 13.15549621246134
ONEWEB-0215             
1 48800U 21045AK  26181.26245150  .00000129  00000+0  30729-3 0  9990
2 48800  87.9009 256.5773 0001928 119.9224 240.2098 13.15548110246015
ONEWEB-0216             
1 48801U 21045AL  26181.27195721  .00000093  00000+0  21188-3 0  9999
2 48801  87.9006 256.5896 0001985  98.1529 261.9826 13.15549254246028
ONEWEB-0239             
1 48802U 21045AM  26181.20065100  .00000229  00000+0  57532-3 0  9993
2 48802  87.8996 256.6091 0002197 121.9222 238.2122 13.15549581246057
ONEWEB-0249             
1 48967U 21060A   26181.58033761  .00000105  00000+0  24202-3 0  9992
2 48967  87.9089 226.1182 0002117  98.8293 261.3078 13.16596233241372
ONEWEB-0250             
1 48968U 21060B   26181.13705229  .00000052  00000+0  88900-4 0  9996
2 48968  87.9088 223.9205 0003092 101.4532 258.6952 13.25835045241932
ONEWEB-0252             
1 48970U 21060D   26181.15524780  .00000024  00000+0  30260-4 0  9997
2 48970  87.9088 226.1950 0001829  93.5840 266.5501 13.16594784241363
ONEWEB-0253             
1 48971U 21060E   26181.52415155 -.00000012  00000+0 -63854-4 0  9998
2 48971  87.9088 226.1271 0002155  98.1749 261.9626 13.16594634241341
ONEWEB-0254             
1 48972U 21060F   26181.53364380 -.00000121  00000+0 -35108-3 0  9994
2 48972  87.9090 226.1232 0002107 104.7437 255.3928 13.16594924241341
ONEWEB-0255             
1 48973U 21060G   26181.57164179  .00000021  00000+0  22183-4 0  9990
2 48973  87.9088 226.1218 0002017 101.6802 258.4555 13.16595044241428
ONEWEB-0256             
1 48974U 21060H   26181.52177385  .00000020  00000+0  18738-4 0  9999
2 48974  87.9082 226.1350 0002013  92.4215 267.7147 13.16594543241389
ONEWEB-0257             
1 48975U 21060J   26180.64225897  .00000049  00000+0  94117-4 0  9990
2 48975  87.9087 226.2977 0001928  98.2864 261.8486 13.16595218241223
ONEWEB-0258             
1 48976U 21060K   26181.09982781  .00000048  00000+0  91716-4 0  9994
2 48976  87.9088 226.2189 0002094  96.9735 263.1634 13.16594505241292
ONEWEB-0259             
1 48977U 21060L   26181.16948909  .00000075  00000+0  16313-3 0  9996
2 48977  87.9085 226.2041 0002166 100.2711 259.8664 13.16595460241331
ONEWEB-0260             
1 48978U 21060M   26181.16078082  .00000008  00000+0 -13036-4 0  9990
2 48978  87.9080 226.2069 0001762  87.6254 272.5079 13.16594882241315
ONEWEB-0261             
1 48979U 21060N   26181.13070143  .00000108  00000+0  24952-3 0  9996
2 48979  87.9086 226.2128 0001810 102.4458 257.6876 13.16593212241364
ONEWEB-0262             
1 48980U 21060P   26181.56689029 -.00000052  00000+0 -17018-3 0  9999
2 48980  87.9086 226.1128 0002219 101.9036 258.2344 13.16594548241387
ONEWEB-0263             
1 48981U 21060Q   26181.52255552 -.00000023  00000+0 -94408-4 0  9993
2 48981  87.9090 226.1333 0001935 105.0330 255.1015 13.16595461241349
ONEWEB-0264             
1 48982U 21060R   26181.17977737  .00000071  00000+0  15309-3 0  9994
2 48982  87.9087 226.2044 0001801  96.4699 263.6637 13.16595195241303
ONEWEB-0266             
1 48984U 21060T   26181.58114602  .00000094  00000+0  21176-3 0  9999
2 48984  87.9088 226.1151 0002122  94.6673 265.4700 13.16595015241349
ONEWEB-0267             
1 48985U 21060U   26181.13624183  .00000054  00000+0  10814-3 0  9994
2 48985  87.9091 226.2006 0001905 101.5169 258.6176 13.16595494241296
ONEWEB-0268             
1 48986U 21060V   26181.48455696  .00000031  00000+0  46972-4 0  9994
2 48986  87.9087 226.1408 0001964  92.5548 267.5808 13.16592520241605
ONEWEB-0269             
1 48987U 21060W   26181.16157128  .00000014  00000+0  32511-5 0  9995
2 48987  87.9078 226.2063 0002068  89.9947 270.1421 13.16595817241336
ONEWEB-0270             
1 48988U 21060X   26181.48297846  .00000035  00000+0  58408-4 0  9998
2 48988  87.9087 226.1430 0002074 106.3624 253.7735 13.16595591241410
ONEWEB-0271             
1 48989U 21060Y   26181.16632530  .00000038  00000+0  66044-4 0  9995
2 48989  87.9085 226.1954 0001938 102.6589 257.4759 13.16595197241371
ONEWEB-0272             
1 48990U 21060Z   26181.56848731  .00000163  00000+0  39329-3 0  9997
2 48990  87.9080 226.1268 0001740  94.4949 265.6381 13.16593405241377
ONEWEB-0273             
1 48991U 21060AA  26181.13465620  .00000044  00000+0  81233-4 0  9993
2 48991  87.9090 226.2131 0002019 100.1527 259.9832 13.16595595241296
ONEWEB-0274             
1 48992U 21060AB  26181.53997569 -.00000003  00000+0 -40812-4 0  9995
2 48992  87.9078 226.1338 0001788  90.9025 269.2311 13.16594834241383
